OBJECT_NAME,OBJECT_ID,EPOCH,MEAN_MOTION,ECCENTRICITY,INCLINATION,RA_OF_ASC_NODE,ARG_OF_PERICENTER,MEAN_ANOMALY,EPHEMERIS_TYPE,CLASSIFICATION_TYPE,NORAD_CAT_ID,ELEMENT_SET_NO,REV_AT_EPOCH,BSTAR,MEAN_MOTION_DOT,MEAN_MOTION_DDOT
STARLINK-3628,2022-017R,2026-07-10T08:00:03.000384,15.31679537,.00010844,53.1579,145.3036,85.7222,82.1611,0,U,51783,999,576,.17635329E-2,.54727E-3,0
STARLINK-3632,2022-017S,2026-07-10T08:02:04.421760,15.35415254,.00013137,53.1604,155.4448,76.2307,283.8842,0,U,51784,999,24083,.43916879E-4,.1152E-4,0
STARLINK-3646,2022-017T,2026-07-10T10:30:54.578880,15.31692330,.00009135,53.1593,144.9038,90.5037,269.6069,0,U,51785,999,24099,-.4976949E-5,-.519E-5,0
STARLINK-3638,2022-017U,2026-07-10T14:00:04.000032,15.33544526,.00010902,53.1601,155.5233,83.2117,336.5187,0,U,51786,999,579,-.46154774E-3,-.15518E-3,0
STARLINK-3619,2022-017V,2026-07-10T06:35:34.093824,15.34399600,.00010183,53.1610,155.0044,95.3840,264.7278,0,U,51787,999,24083,.68506822E-4,.1939E-4,0
STARLINK-3641,2022-017W,2026-07-10T14:00:04.000032,15.33558642,.00014878,53.1681,155.5510,84.2599,22.4138,0,U,51788,999,577,-.81243357E-3,-.27005E-3,0
STARLINK-3639,2022-017X,2026-07-10T14:00:04.000032,15.28958624,.00008933,53.1610,156.2291,61.2185,336.9090,0,U,51789,999,584,.15608747E-2,.44405E-3,0
STARLINK-3631,2022-017Y,2026-07-10T13:42:28.584288,15.09430536,.0001223,53.2132,157.3397,37.8209,322.2869,0,U,51790,999,24252,.86724185E-4,.1113E-4,0
STARLINK-3602,2022-017Z,2026-07-10T14:00:04.000032,15.31812346,.0001172,53.1657,155.6857,83.4926,272.6373,0,U,51791,999,579,.20403027E-1,.687142E-2,0
STARLINK-3626,2022-017AA,2026-07-10T14:00:04.000032,15.31796262,.00014115,53.1678,155.6545,82.6207,30.9333,0,U,51792,999,585,.20663303E-1,.687219E-2,0
STARLINK-3573,2022-017AC,2026-07-10T12:01:04.323072,16.11911366,.00030238,53.2113,127.8310,244.2230,115.8495,0,U,51794,999,24288,.54770048E-3,.599677E-2,.20530139E-3
STARLINK-3586,2022-017AD,2026-07-10T14:00:04.000032,15.35401892,.000143,53.1691,155.5812,91.6336,81.5056,0,U,51795,999,577,-.819809E-3,-.2887E-3,0
STARLINK-3634,2022-017AG,2026-07-09T15:24:39.043584,15.35405208,.00009199,53.1616,158.7897,98.5207,261.5901,0,U,51798,999,24241,.44237178E-4,.1163E-4,0
STARLINK-3637,2022-017AH,2026-07-10T13:15:05.719392,15.34616549,.00016915,53.1609,154.3977,69.1560,290.9624,0,U,51799,999,24251,-.21877057E-2,-.7408E-3,0
STARLINK-3592,2022-017AK,2026-07-10T14:00:04.000032,15.33564648,.00016774,53.1582,155.5198,78.0438,183.3223,0,U,51801,999,579,-.96322109E-3,-.31934E-3,0
STARLINK-3544,2022-017AM,2026-07-10T06:38:42.621216,15.34386269,.00015427,53.1572,155.6814,88.3526,271.7653,0,U,51803,999,24246,-.75407329E-4,-.2922E-4,0
STARLINK-3601,2022-017AN,2026-07-10T15:04:58.994976,15.10012168,.00019474,53.1604,136.9767,42.3578,317.7564,0,U,51804,999,24271,.42921327E-2,.70964E-3,0
STARLINK-3605,2022-017AP,2026-07-10T05:39:35.568576,15.08837394,.00015567,53.1608,138.8314,60.1667,299.9480,0,U,51805,999,24274,.65508722E-4,.755E-5,0
STARLINK-3606,2022-017AR,2026-07-10T14:00:04.000032,15.18646325,.00024368,53.1615,146.9566,76.0360,59.9456,0,U,51807,999,585,.53324248E-3,.1088E-3,0
STARLINK-3609,2022-017AS,2026-07-10T14:00:04.000032,15.19361681,.00018277,53.1597,146.9188,112.1981,123.6704,0,U,51808,999,585,.2303904E-3,.4615E-4,0
STARLINK-3607,2022-017AT,2026-07-10T14:00:04.000032,15.18626420,.00012441,53.1602,146.9057,77.9132,104.5361,0,U,51809,999,585,.30712033E-3,.6124E-4,0
STARLINK-3613,2022-017AU,2026-07-10T14:00:04.000032,15.13324560,.00022799,53.1597,137.3663,68.5978,164.2483,0,U,51810,999,579,.85199006E-3,.15085E-3,0
STARLINK-3569,2022-017AV,2026-07-10T14:00:04.000032,15.30162810,.00006526,53.1604,146.0725,115.6997,177.3009,0,U,51811,999,585,.17658976E-2,.52249E-3,0
STARLINK-3610,2022-017AW,2026-07-09T23:33:57.485376,15.08827789,.00011738,53.1603,139.8961,93.5490,266.5635,0,U,51812,999,24254,.13563063E-4,-.72E-6,0
STARLINK-3552,2022-017AX,2026-07-10T05:28:59.376000,15.08835159,.00013282,53.1595,138.8172,75.0884,285.0255,0,U,51813,999,24258,.39336988E-4,.338E-5,0
STARLINK-3599,2022-017AY,2026-07-09T05:54:05.833440,15.08830674,.0001809,53.1572,143.2062,78.3267,281.7928,0,U,51814,999,24243,.41894367E-4,.378E-5,0
STARLINK-3604,2022-017AZ,2026-07-10T06:02:26.721888,15.29358487,.00011669,53.1633,136.6791,89.7324,270.3811,0,U,51815,999,24261,.16008267E-4,.106E-5,0
LUDI TANCE 1-01B (L-SAR 01B),2022-018A,2026-07-10T14:37:59.084832,14.88410513,.00016394,97.8108,198.6949,91.6078,268.5327,0,U,51822,999,23719,.41699763E-4,.332E-5,0
GOES 18,2022-021A,2026-07-10T12:34:38.504064,1.00272174,.00005938,0.0186,203.2178,346.3182,150.5643,0,U,51850,999,682,0,.107E-5,0
STARLINK-3542,2022-022A,2026-07-10T14:00:04.000032,15.33806009,.00015294,53.1600,185.5803,46.7956,359.9047,0,U,51852,999,539,.18748781E-2,.62308E-3,0
STARLINK-3541,2022-022C,2026-07-09T09:15:40.868352,15.19391186,.00027875,53.2103,184.2754,17.1982,342.9109,0,U,51854,999,24151,.53313223E-3,.1112E-3,0
STARLINK-3545,2022-022D,2026-07-10T14:00:04.000032,15.32020302,.00015747,53.1601,185.7381,47.7334,338.3378,0,U,51855,999,585,.35813538E-1,.1223002E-1,0
STARLINK-3568,2022-022E,2026-07-10T08:00:03.000384,15.29516622,.00012603,53.1667,186.9036,73.7789,351.5790,0,U,51856,999,576,.26003331E-1,.816531E-2,0
STARLINK-3571,2022-022F,2026-07-10T11:56:37.099968,15.29354087,.00015109,53.1601,186.0414,73.4987,286.6180,0,U,51857,999,24158,.29248869E-4,.488E-5,0
STARLINK-3563,2022-022G,2026-07-10T14:00:04.000032,15.30485380,.00014003,53.1589,186.0557,99.6768,143.8451,0,U,51858,999,585,.16301067E-2,.48667E-3,0
STARLINK-3560,2022-022H,2026-07-10T14:00:04.000032,15.26947726,.00004566,53.1593,176.4509,155.9348,156.6313,0,U,51859,999,584,.1444266E-2,.38574E-3,0
STARLINK-3559,2022-022J,2026-07-10T08:07:57.172224,15.08836267,.00009839,53.1583,178.2913,82.7969,277.3134,0,U,51860,999,24163,.44715794E-4,.424E-5,0
STARLINK-3562,2022-022K,2026-07-10T14:06:53.956800,15.09696655,.00010588,53.1594,177.1600,106.7152,253.3956,0,U,51861,999,24158,.64381798E-2,.106195E-2,0
STARLINK-3508,2022-022L,2026-07-10T00:05:44.623680,15.08831229,.00010759,53.1588,179.7974,74.8565,285.2545,0,U,51862,999,24163,.36252548E-4,.289E-5,0
STARLINK-3555,2022-022M,2026-07-09T09:20:47.527872,15.08844959,.00015633,53.1577,182.5573,108.3043,251.8119,0,U,51863,999,24148,.55509892E-3,.8559E-4,0
STARLINK-3548,2022-022N,2026-07-09T09:26:02.537088,15.08837384,.00010297,53.1594,182.4643,81.2859,278.8249,0,U,51864,999,24153,.16865229E-4,-.19E-6,0
STARLINK-3503,2022-022P,2026-07-08T17:16:19.977888,15.08823088,.00013968,53.1609,185.5692,85.8344,274.2807,0,U,51865,999,24138,.97331434E-4,.1261E-4,0
STARLINK-3553,2022-022Q,2026-07-10T08:57:01.442304,15.08834331,.00008217,53.1585,177.9917,92.6654,267.4432,0,U,51866,999,24163,.53140388E-4,.558E-5,0
STARLINK-3590,2022-022R,2026-07-09T17:01:47.406144,15.08835996,.00014173,53.1582,181.1197,67.9473,292.1668,0,U,51867,999,24153,.29674461E-4,.184E-5,0
STARLINK-3578,2022-022S,2026-07-10T09:06:16.033536,15.08833589,.00011687,53.1590,178.1085,85.0827,275.0298,0,U,51868,999,24163,.43457941E-4,.404E-5,0
STARLINK-3588,2022-022T,2026-07-10T08:39:45.396576,15.08834073,.00012879,53.1590,178.1923,79.6878,280.4258,0,U,51869,999,24163,.55275206E-4,.592E-5,0
STARLINK-3591,2022-022U,2026-07-09T16:56:30.732000,15.08831065,.00013325,53.1599,181.1364,88.9669,271.1475,0,U,51870,999,24158,-.2748156E-5,-.332E-5,0
STARLINK-3567,2022-022V,2026-07-10T08:34:27.510240,15.08834900,.00010307,53.1590,178.2083,70.7772,289.3331,0,U,51871,999,24174,.43333342E-4,.402E-5,0
STARLINK-3554,2022-022W,2026-07-10T08:45:04.613472,15.08829314,.00012562,53.1585,178.1768,76.6492,283.4639,0,U,51872,999,24163,.84445595E-4,.1056E-4,0
STARLINK-3582,2022-022X,2026-07-09T15:09:20.532960,15.23654950,.00016496,53.1961,167.8205,305.2546,54.8298,0,U,51873,999,24172,.78252039E-3,.18716E-3,0
STARLINK-3574,2022-022Y,2026-07-10T08:29:10.399776,15.08831021,.00012151,53.1583,178.2254,76.5518,283.5609,0,U,51874,999,24162,.45174434E-4,.431E-5,0
STARLINK-3585,2022-022Z,2026-07-09T16:03:30.194208,15.08831282,.00011606,53.1595,181.2147,85.2507,274.8617,0,U,51875,999,24153,.32062306E-4,.222E-5,0
STARLINK-3583,2022-022AA,2026-07-10T08:23:52.142784,15.08831796,.00012919,53.1603,178.2398,81.3935,278.7203,0,U,51876,999,24163,.29557527E-4,.182E-5,0
STARLINK-3556,2022-022AB,2026-07-09T08:25:50.227392,15.35405399,.00013795,53.1613,169.3620,75.9976,284.1180,0,U,51877,999,24166,.79306616E-4,.2387E-4,0
STARLINK-3575,2022-022AC,2026-07-10T08:13:17.025024,15.08810607,.00008057,53.1613,178.2754,116.8730,243.2343,0,U,51878,999,24163,.27558391E-3,.4098E-4,0
STARLINK-3572,2022-022AD,2026-07-10T14:00:04.000032,15.34347526,.00023021,53.1586,165.5530,95.5459,352.9633,0,U,51879,999,577,.37067186E-3,.12147E-3,0
STARLINK-3566,2022-022AE,2026-07-10T11:29:18.164544,15.08829315,.00012919,53.1590,177.3823,85.3243,274.7896,0,U,51880,999,24165,.58107431E-4,.637E-5,0
STARLINK-3504,2022-022AF,2026-07-10T14:00:04.000032,15.33568221,.00013273,53.1585,165.4688,85.3988,87.2812,0,U,51881,999,585,-.89823019E-3,-.29815E-3,0
STARLINK-3570,2022-022AG,2026-07-10T14:00:04.000032,15.31719674,.00010741,53.1589,164.5870,96.1331,111.5613,0,U,51882,999,584,-.10284281E-2,-.32161E-3,0
STARLINK-3576,2022-022AH,2026-07-10T14:00:04.000032,15.35344406,.00006239,53.1586,165.6733,59.9786,41.2193,0,U,51883,999,577,.40516294E-3,.13753E-3,0
STARLINK-3577,2022-022AJ,2026-07-10T14:00:04.000032,15.28545959,.00018445,53.1594,166.2273,73.2704,49.8135,0,U,51884,999,584,.36249993E-3,.9864E-4,0
STARLINK-3584,2022-022AK,2026-07-10T14:00:04.000032,15.33313600,.00019895,53.1588,165.6520,82.9215,55.2310,0,U,51885,999,585,.129748E-2,.42223E-3,0
STARLINK-3565,2022-022AL,2026-07-10T07:16:01.708320,15.09779637,.00021663,53.1761,168.3969,62.6537,297.4675,0,U,51886,999,24176,.3491341E-3,.5415E-4,0
STARLINK-3551,2022-022AM,2026-07-10T13:21:32.429376,15.34851954,.00016178,53.1620,163.6912,53.9521,306.1631,0,U,51887,999,24184,-.19688867E-2,-.67268E-3,0
